[
  {
    "name": "ONEWEB-0193",
    "noradId": "48238",
    "line1": "1 48238U 21031AE  26199.27786583 -.00000037  00000+0 -13383-3 0  9997",
    "line2": "2 48238  87.8965 283.5046 0001863 110.8156 249.3173 13.14502542252395"
  },
  {
    "name": "ONEWEB-0191",
    "noradId": "48239",
    "line1": "1 48239U 21031AF  26199.51729547  .00000180  00000+0  45010-3 0  9991",
    "line2": "2 48239  87.8972 283.4576 0001920  95.4307 264.7041 13.14507349252284"
  },
  {
    "name": "ONEWEB-0195",
    "noradId": "48240",
    "line1": "1 48240U 21031AG  26199.18987726 -.00002192  00000+0 -59501-2 0  9997",
    "line2": "2 48240  87.8971 283.5226 0002271  97.4654 262.6734 13.14482269252228"
  },
  {
    "name": "ONEWEB-0201",
    "noradId": "48241",
    "line1": "1 48241U 21031AH  26199.48256080 -.00000083  00000+0 -25788-3 0  9991",
    "line2": "2 48241  87.8967 283.4788 0002004  90.3176 269.8184 13.14502783252492"
  },
  {
    "name": "ONEWEB-0207",
    "noradId": "48242",
    "line1": "1 48242U 21031AJ  26199.23424452  .00000263  00000+0  67534-3 0  9998",
    "line2": "2 48242  87.8972 283.5150 0001996  90.9931 269.1427 13.14500890252374"
  },
  {
    "name": "ONEWEB-0208",
    "noradId": "48243",
    "line1": "1 48243U 21031AK  26199.52048885  .00000171  00000+0  42666-3 0  9990",
    "line2": "2 48243  87.8965 283.4631 0002395 100.6416 259.4984 13.14502458252429"
  },
  {
    "name": "ONEWEB-0200",
    "noradId": "48244",
    "line1": "1 48244U 21031AL  26199.25566616 -.00000111  00000+0 -33503-3 0  9994",
    "line2": "2 48244  87.8980 283.5053 0002125  97.4925 262.6446 13.14502262252315"
  },
  {
    "name": "ONEWEB-0217",
    "noradId": "48245",
    "line1": "1 48245U 21031AM  26199.27151746 -.00000144  00000+0 -42229-3 0  9992",
    "line2": "2 48245  87.8974 283.5062 0002457 101.1740 258.9666 13.14503573252267"
  },
  {
    "name": "ONEWEB-0211",
    "noradId": "48767",
    "line1": "1 48767U 21045A   26199.20705427  .00000083  00000+0  18435-3 0  9992",
    "line2": "2 48767  87.8984 252.8948 0002742 104.0301 256.1135 13.16197159248527"
  },
  {
    "name": "ONEWEB-0223",
    "noradId": "48768",
    "line1": "1 48768U 21045B   26199.22466226  .00000172  00000+0  42383-3 0  9994",
    "line2": "2 48768  87.8990 253.0079 0002368 106.6447 253.4944 13.15548590248487"
  },
  {
    "name": "ONEWEB-0230",
    "noradId": "48769",
    "line1": "1 48769U 21045C   26199.57642838 -.00000056  00000+0 -18303-3 0  9996",
    "line2": "2 48769  87.8978 252.9489 0001927  95.5742 264.5608 13.15547949248792"
  },
  {
    "name": "ONEWEB-0237",
    "noradId": "48770",
    "line1": "1 48770U 21045D   26199.56533181 -.00000090  00000+0 -27400-3 0  9993",
    "line2": "2 48770  87.8978 252.9526 0002401  94.2036 265.9369 13.15548326248515"
  },
  {
    "name": "ONEWEB-0235",
    "noradId": "48771",
    "line1": "1 48771U 21045E   26199.61601918 -.00000019  00000+0 -83574-4 0  9990",
    "line2": "2 48771  87.8990 252.9311 0002266 107.0356 253.1023 13.15550360248516"
  },
  {
    "name": "ONEWEB-0242",
    "noradId": "48772",
    "line1": "1 48772U 21045F   26199.45758778  .00000117  00000+0  27743-3 0  9992",
    "line2": "2 48772  87.8993 252.9600 0002024 103.3909 256.7447 13.15548448248531"
  },
  {
    "name": "ONEWEB-0241",
    "noradId": "48773",
    "line1": "1 48773U 21045G   26199.59705258  .00000187  00000+0  46302-3 0  9992",
    "line2": "2 48773  87.8978 252.9471 0002418 103.9881 256.1518 13.15538688248463"
  },
  {
    "name": "ONEWEB-0243",
    "noradId": "48774",
    "line1": "1 48774U 21045H   26199.55263990 -.00000098  00000+0 -29535-3 0  9993",
    "line2": "2 48774  87.8982 252.9685 0002010 113.8560 246.2781 13.15550126248483"
  },
  {
    "name": "ONEWEB-0222",
    "noradId": "48775",
    "line1": "1 48775U 21045J   26199.23178875  .00000100  00000+0  23037-3 0  9999",
    "line2": "2 48775  87.8991 253.0029 0002151 102.6705 257.4666 13.15547698248487"
  },
  {
    "name": "ONEWEB-0244",
    "noradId": "48776",
    "line1": "1 48776U 21045K   26199.56216720 -.00000156  00000+0 -44932-3 0  9998",
    "line2": "2 48776  87.8993 252.9333 0002103 101.0795 259.0572 13.15548055249095"
  },
  {
    "name": "ONEWEB-0247",
    "noradId": "48777",
    "line1": "1 48777U 21045L   26199.55897722 -.00000158  00000+0 -45405-3 0  9993",
    "line2": "2 48777  87.8982 252.9619 0002244 119.6304 240.5050 13.15546428248534"
  },
  {
    "name": "ONEWEB-0245",
    "noradId": "48778",
    "line1": "1 48778U 21045M   26199.17394157 -.00000090  00000+0 -27242-3 0  9990",
    "line2": "2 48778  87.8991 253.0206 0002288  98.6264 261.5126 13.15549361248455"
  },
  {
    "name": "ONEWEB-0229",
    "noradId": "48779",
    "line1": "1 48779U 21045N   26199.54948996 -.00000116  00000+0 -34160-3 0  9994",
    "line2": "2 48779  87.8989 252.9434 0001994  99.8098 260.3257 13.15547939248535"
  },
  {
    "name": "ONEWEB-0228",
    "noradId": "48780",
    "line1": "1 48780U 21045P   26199.20260777  .00000143  00000+0  34595-3 0  9993",
    "line2": "2 48780  87.8990 253.0069 0002083  99.5060 260.6305 13.15549704248406"
  },
  {
    "name": "ONEWEB-0232",
    "noradId": "48781",
    "line1": "1 48781U 21045Q   26199.55741709 -.00000196  00000+0 -55427-3 0  9998",
    "line2": "2 48781  87.8995 252.9365 0002239  97.2386 262.8999 13.15546785248777"
  },
  {
    "name": "ONEWEB-0231",
    "noradId": "48782",
    "line1": "1 48782U 21045R   26199.15494234  .00000628  00000+0  16338-2 0  9998",
    "line2": "2 48782  87.9007 253.0297 0002349 107.5117 252.6270 13.15546597248419"
  },
  {
    "name": "ONEWEB-0234",
    "noradId": "48783",
    "line1": "1 48783U 21045S   26199.57312245 -.00000070  00000+0 -21884-3 0  9992",
    "line2": "2 48783  87.8992 252.9270 0002685  83.4518 276.6918 13.15547309248609"
  },
  {
    "name": "ONEWEB-0238",
    "noradId": "48784",
    "line1": "1 48784U 21045T   26199.57337810 -.00000064  00000+0 -20475-3 0  9996",
    "line2": "2 48784  87.8991 252.9234 0002367  89.4520 270.6882 13.15548660248509"
  },
  {
    "name": "ONEWEB-0240",
    "noradId": "48785",
    "line1": "1 48785U 21045U   26199.59463955  .00000174  00000+0  42751-3 0  9990",
    "line2": "2 48785  87.8991 252.9285 0002370 101.0625 259.0772 13.15549153248537"
  },
  {
    "name": "ONEWEB-0246",
    "noradId": "48786",
    "line1": "1 48786U 21045V   26199.58910263  .00000127  00000+0  30369-3 0  9999",
    "line2": "2 48786  87.8989 252.9336 0002021 101.6447 258.4911 13.15548309248409"
  },
  {
    "name": "ONEWEB-0210",
    "noradId": "48787",
    "line1": "1 48787U 21045W   26199.56374932 -.00000133  00000+0 -38686-3 0  9994",
    "line2": "2 48787  87.8991 252.9357 0001961 121.2065 238.9258 13.15547842248444"
  },
  {
    "name": "ONEWEB-0214",
    "noradId": "48788",
    "line1": "1 48788U 21045X   26199.57245651 -.00000053  00000+0 -17597-3 0  9990",
    "line2": "2 48788  87.8987 252.9308 0001752 102.2534 257.8793 13.15546608248414"
  },
  {
    "name": "ONEWEB-0221",
    "noradId": "48789",
    "line1": "1 48789U 21045Y   26199.57959847  .00000011  00000+0 -39127-5 0  9998",
    "line2": "2 48789  87.8987 252.9380 0002181 101.9841 258.1534 13.15548215248502"
  },
  {
    "name": "ONEWEB-0213",
    "noradId": "48790",
    "line1": "1 48790U 21045Z   26199.56850264 -.00000088  00000+0 -26855-3 0  9999",
    "line2": "2 48790  87.8987 252.9431 0002124 105.2747 254.8618 13.15548562248567"
  },
  {
    "name": "ONEWEB-0212",
    "noradId": "48791",
    "line1": "1 48791U 21045AA  26199.54552071 -.00000029  00000+0 -11191-3 0  9995",
    "line2": "2 48791  87.8990 252.9419 0002085  96.0431 264.0937 13.15546889248557"
  },
  {
    "name": "ONEWEB-0227",
    "noradId": "48792",
    "line1": "1 48792U 21045AB  26199.16444850  .00000018  00000+0  12978-4 0  9990",
    "line2": "2 48792  87.8989 253.0177 0002143  99.1920 260.9453 13.15548306248454"
  },
  {
    "name": "ONEWEB-0226",
    "noradId": "48793",
    "line1": "1 48793U 21045AC  26199.15811043  .00000079  00000+0  17537-3 0  9994",
    "line2": "2 48793  87.8989 253.0238 0002015  98.9443 261.1915 13.15547900248420"
  },
  {
    "name": "ONEWEB-0224",
    "noradId": "48794",
    "line1": "1 48794U 21045AD  26199.57801329 -.00000040  00000+0 -14049-3 0  9992",
    "line2": "2 48794  87.8979 252.9725 0002970  94.8925 265.2544 13.15548284248406"
  },
  {
    "name": "ONEWEB-0233",
    "noradId": "48795",
    "line1": "1 48795U 21045AE  26199.43050020  .00000108  00000+0  25196-3 0  9990",
    "line2": "2 48795  87.8979 253.0091 0002290 103.1217 257.0169 13.15551033248406"
  },
  {
    "name": "ONEWEB-0190",
    "noradId": "48796",
    "line1": "1 48796U 21045AF  26199.57008576 -.00000059  00000+0 -19021-3 0  9992",
    "line2": "2 48796  87.8985 252.9449 0002367 113.7755 246.3624 13.15548436248497"
  },
  {
    "name": "ONEWEB-0236",
    "noradId": "48797",
    "line1": "1 48797U 21045AG  26199.58752055  .00000036  00000+0  61655-4 0  9996",
    "line2": "2 48797  87.8974 252.9492 0002081  94.4205 265.7163 13.15548828248388"
  },
  {
    "name": "ONEWEB-0248",
    "noradId": "48798",
    "line1": "1 48798U 21045AH  26199.60018902  .00000088  00000+0  19991-3 0  9998",
    "line2": "2 48798  87.8992 252.9330 0002475 105.4151 254.7253 13.15549311248544"
  },
  {
    "name": "ONEWEB-0225",
    "noradId": "48799",
    "line1": "1 48799U 21045AJ  26199.16603699  .00000005  00000+0 -20691-4 0  9993",
    "line2": "2 48799  87.8987 253.0267 0002335 111.7242 248.4137 13.15548245248496"
  },
  {
    "name": "ONEWEB-0215",
    "noradId": "48800",
    "line1": "1 48800U 21045AK  26199.59226354  .00000154  00000+0  37390-3 0  9999",
    "line2": "2 48800  87.8989 252.9264 0002501 112.3687 247.7708 13.15549471248422"
  },
  {
    "name": "ONEWEB-0216",
    "noradId": "48801",
    "line1": "1 48801U 21045AL  26199.60178291  .00000071  00000+0  15369-3 0  9998",
    "line2": "2 48801  87.8986 252.9377 0002034  97.8227 262.3134 13.15547513248435"
  }
]